[{"OBJECT_NAME":"FENGYUN 1C DEB","OBJECT_ID":"1999-025DTX","EPOCH":"2026-03-03T12:08:56.067936","MEAN_MOTION":14.08349473,"ECCENTRICITY":0.009573,"INCLINATION":98.6137,"RA_OF_ASC_NODE":93.246,"ARG_OF_PERICENTER":244.6555,"MEAN_ANOMALY":114.4677,"EPHEMERIS_TYPE":0,"CLASSIFICATION_TYPE":"U","NORAD_CAT_ID":36198,"ELEMENT_SET_NO":999,"REV_AT_EPOCH":64724,"BSTAR":0.0016829,"MEAN_MOTION_DOT":2.962e-5,"MEAN_MOTION_DDOT":0},{"OBJECT_NAME":"FENGYUN 1C DEB","OBJECT_ID":"1999-025DTY","EPOCH":"2026-03-04T20:04:09.989472","MEAN_MOTION":14.29794865,"ECCENTRICITY":0.0091808,"INCLINATION":98.285,"RA_OF_ASC_NODE":86.0315,"ARG_OF_PERICENTER":183.1464,"MEAN_ANOMALY":176.9153,"EPHEMERIS_TYPE":0,"CLASSIFICATION_TYPE":"U","NORAD_CAT_ID":36199,"ELEMENT_SET_NO":999,"REV_AT_EPOCH":66153,"BSTAR":0.00027502895,"MEAN_MOTION_DOT":6.99e-6,"MEAN_MOTION_DDOT":0},{"OBJECT_NAME":"FENGYUN 1C DEB","OBJECT_ID":"1999-025DTZ","EPOCH":"2026-03-02T10:55:05.521728","MEAN_MOTION":14.62562978,"ECCENTRICITY":0.0035129,"INCLINATION":99.378,"RA_OF_ASC_NODE":150.9336,"ARG_OF_PERICENTER":133.6947,"MEAN_ANOMALY":226.7171,"EPHEMERIS_TYPE":0,"CLASSIFICATION_TYPE":"U","NORAD_CAT_ID":36200,"ELEMENT_SET_NO":999,"REV_AT_EPOCH":74524,"BSTAR":0.0046906876,"MEAN_MOTION_DOT":0.00024046,"MEAN_MOTION_DDOT":0},{"OBJECT_NAME":"FENGYUN 1C DEB","OBJECT_ID":"1999-025DUD","EPOCH":"2026-03-01T01:47:14.366112","MEAN_MOTION":14.35179499,"ECCENTRICITY":0.00177062,"INCLINATION":99.2858,"RA_OF_ASC_NODE":168.0359,"ARG_OF_PERICENTER":291.2286,"MEAN_ANOMALY":68.7006,"EPHEMERIS_TYPE":0,"CLASSIFICATION_TYPE":"U","NORAD_CAT_ID":36204,"ELEMENT_SET_NO":999,"REV_AT_EPOCH":95551,"BSTAR":0.0011358981,"MEAN_MOTION_DOT":3.203e-5,"MEAN_MOTION_DDOT":0},{"OBJECT_NAME":"FENGYUN 1C DEB","OBJECT_ID":"1999-025DUF","EPOCH":"2026-03-01T20:50:36.527712","MEAN_MOTION":14.21831805,"ECCENTRICITY":0.003148,"INCLINATION":98.4725,"RA_OF_ASC_NODE":85.9096,"ARG_OF_PERICENTER":146.2424,"MEAN_ANOMALY":214.0767,"EPHEMERIS_TYPE":0,"CLASSIFICATION_TYPE":"U","NORAD_CAT_ID":36206,"ELEMENT_SET_NO":999,"REV_AT_EPOCH":65545,"BSTAR":0.00059795,"MEAN_MOTION_DOT":1.282e-5,"MEAN_MOTION_DDOT":0},{"OBJECT_NAME":"FENGYUN 1C DEB","OBJECT_ID":"1999-025DUG","EPOCH":"2026-03-05T10:46:57.077472","MEAN_MOTION":14.03257829,"ECCENTRICITY":0.0142228,"INCLINATION":98.6034,"RA_OF_ASC_NODE":309.423,"ARG_OF_PERICENTER":89.579,"MEAN_ANOMALY":272.1674,"EPHEMERIS_TYPE":0,"CLASSIFICATION_TYPE":"U","NORAD_CAT_ID":36207,"ELEMENT_SET_NO":999,"REV_AT_EPOCH":61125,"BSTAR":0.0023866,"MEAN_MOTION_DOT":4.033e-5,"MEAN_MOTION_DDOT":0},{"OBJECT_NAME":"FENGYUN 1C DEB","OBJECT_ID":"1999-025DUL","EPOCH":"2026-03-05T22:41:38.847264","MEAN_MOTION":14.26351014,"ECCENTRICITY":0.02665317,"INCLINATION":98.5124,"RA_OF_ASC_NODE":60.8241,"ARG_OF_PERICENTER":345.3695,"MEAN_ANOMALY":13.9876,"EPHEMERIS_TYPE":0,"CLASSIFICATION_TYPE":"U","NORAD_CAT_ID":36211,"ELEMENT_SET_NO":999,"REV_AT_EPOCH":95555,"BSTAR":0.00099874771,"MEAN_MOTION_DOT":3.443e-5,"MEAN_MOTION_DDOT":0},{"OBJECT_NAME":"FENGYUN 1C DEB","OBJECT_ID":"1999-025DUR","EPOCH":"2026-03-02T06:37:41.268576","MEAN_MOTION":14.18987676,"ECCENTRICITY":0.00455979,"INCLINATION":98.6046,"RA_OF_ASC_NODE":84.1644,"ARG_OF_PERICENTER":146.2078,"MEAN_ANOMALY":214.2019,"EPHEMERIS_TYPE":0,"CLASSIFICATION_TYPE":"U","NORAD_CAT_ID":36216,"ELEMENT_SET_NO":999,"REV_AT_EPOCH":65500,"BSTAR":0.00032596083,"MEAN_MOTION_DOT":6.45e-6,"MEAN_MOTION_DDOT":0},{"OBJECT_NAME":"FENGYUN 1C DEB","OBJECT_ID":"1999-025DUT","EPOCH":"2026-03-03T01:10:20.385984","MEAN_MOTION":14.72266949,"ECCENTRICITY":0.00720136,"INCLINATION":99.0747,"RA_OF_ASC_NODE":277.2706,"ARG_OF_PERICENTER":46.5612,"MEAN_ANOMALY":314.1554,"EPHEMERIS_TYPE":0,"CLASSIFICATION_TYPE":"U","NORAD_CAT_ID":36218,"ELEMENT_SET_NO":999,"REV_AT_EPOCH":60324,"BSTAR":0.00092678176,"MEAN_MOTION_DOT":6.036e-5,"MEAN_MOTION_DDOT":0},{"OBJECT_NAME":"FENGYUN 1C DEB","OBJECT_ID":"1999-025DUZ","EPOCH":"2026-02-24T21:49:26.876640","MEAN_MOTION":14.12805744,"ECCENTRICITY":0.011561,"INCLINATION":98.7676,"RA_OF_ASC_NODE":106.7658,"ARG_OF_PERICENTER":140.3704,"MEAN_ANOMALY":220.5989,"EPHEMERIS_TYPE":0,"CLASSIFICATION_TYPE":"U","NORAD_CAT_ID":36224,"ELEMENT_SET_NO":999,"REV_AT_EPOCH":65479,"BSTAR":9.7021e-5,"MEAN_MOTION_DOT":1.5e-6,"MEAN_MOTION_DDOT":0},{"OBJECT_NAME":"FENGYUN 1C DEB","OBJECT_ID":"1999-025DVA","EPOCH":"2026-03-06T04:55:15.998592","MEAN_MOTION":15.1523367,"ECCENTRICITY":0.00338505,"INCLINATION":98.8197,"RA_OF_ASC_NODE":204.1913,"ARG_OF_PERICENTER":11.3831,"MEAN_ANOMALY":348.8155,"EPHEMERIS_TYPE":0,"CLASSIFICATION_TYPE":"U","NORAD_CAT_ID":36225,"ELEMENT_SET_NO":999,"REV_AT_EPOCH":68032,"BSTAR":0.0029273756,"MEAN_MOTION_DOT":0.00056118,"MEAN_MOTION_DDOT":0},{"OBJECT_NAME":"FENGYUN 1C DEB","OBJECT_ID":"1999-025DVB","EPOCH":"2026-02-27T08:08:38.051520","MEAN_MOTION":14.10728672,"ECCENTRICITY":0.00978137,"INCLINATION":98.602,"RA_OF_ASC_NODE":102.6073,"ARG_OF_PERICENTER":162.0149,"MEAN_ANOMALY":198.4524,"EPHEMERIS_TYPE":0,"CLASSIFICATION_TYPE":"U","NORAD_CAT_ID":36226,"ELEMENT_SET_NO":999,"REV_AT_EPOCH":64842,"BSTAR":0.0013565834,"MEAN_MOTION_DOT":2.495e-5,"MEAN_MOTION_DDOT":0},{"OBJECT_NAME":"FENGYUN 1C DEB","OBJECT_ID":"1999-025DVE","EPOCH":"2026-03-05T09:02:32.703360","MEAN_MOTION":14.07737688,"ECCENTRICITY":0.010358,"INCLINATION":100.9235,"RA_OF_ASC_NODE":306.2703,"ARG_OF_PERICENTER":267.8519,"MEAN_ANOMALY":91.0779,"EPHEMERIS_TYPE":0,"CLASSIFICATION_TYPE":"U","NORAD_CAT_ID":36229,"ELEMENT_SET_NO":999,"REV_AT_EPOCH":64418,"BSTAR":0.0021084,"MEAN_MOTION_DOT":3.688e-5,"MEAN_MOTION_DDOT":0},{"OBJECT_NAME":"FENGYUN 1C DEB","OBJECT_ID":"1999-025DVF","EPOCH":"2026-03-03T09:37:16.831200","MEAN_MOTION":13.75605543,"ECCENTRICITY":0.02122422,"INCLINATION":99.5174,"RA_OF_ASC_NODE":142.4447,"ARG_OF_PERICENTER":290.2284,"MEAN_ANOMALY":67.6159,"EPHEMERIS_TYPE":0,"CLASSIFICATION_TYPE":"U","NORAD_CAT_ID":36230,"ELEMENT_SET_NO":999,"REV_AT_EPOCH":62995,"BSTAR":0.0018740629,"MEAN_MOTION_DOT":2.084e-5,"MEAN_MOTION_DDOT":0},{"OBJECT_NAME":"FENGYUN 1C DEB","OBJECT_ID":"1999-025DVG","EPOCH":"2026-03-05T08:56:49.233120","MEAN_MOTION":14.12055266,"ECCENTRICITY":0.0061975,"INCLINATION":98.7011,"RA_OF_ASC_NODE":41.7964,"ARG_OF_PERICENTER":97.2773,"MEAN_ANOMALY":263.5449,"EPHEMERIS_TYPE":0,"CLASSIFICATION_TYPE":"U","NORAD_CAT_ID":36231,"ELEMENT_SET_NO":999,"REV_AT_EPOCH":86709,"BSTAR":0.00017728,"MEAN_MOTION_DOT":2.89e-6,"MEAN_MOTION_DDOT":0},{"OBJECT_NAME":"FENGYUN 1C DEB","OBJECT_ID":"1999-025DVH","EPOCH":"2026-02-08T05:14:16.169280","MEAN_MOTION":14.1259545,"ECCENTRICITY":0.0117723,"INCLINATION":98.7128,"RA_OF_ASC_NODE":26.6675,"ARG_OF_PERICENTER":223.7951,"MEAN_ANOMALY":135.3839,"EPHEMERIS_TYPE":0,"CLASSIFICATION_TYPE":"U","NORAD_CAT_ID":36232,"ELEMENT_SET_NO":999,"REV_AT_EPOCH":62547,"BSTAR":0.00029717,"MEAN_MOTION_DOT":5.44e-6,"MEAN_MOTION_DDOT":0}]
