FENGYUN 1C DEB          
1 36198U 99025DTX 26062.50620449  .00002962  00000+0  16829-2 0  9994
2 36198  98.6137  93.2460 0095730 244.6555 114.4677 14.08349473647248
FENGYUN 1C DEB          
1 36199U 99025DTY 26063.83622673  .00000699  00000+0  27503-3 0  9990
2 36199  98.2850  86.0315 0091808 183.1464 176.9153 14.29794865661536
FENGYUN 1C DEB          
1 36200U 99025DTZ 26061.45492502  .00024046  00000+0  46907-2 0  9995
2 36200  99.3780 150.9336 0035129 133.6947 226.7171 14.62562978745247
FENGYUN 1C DEB          
1 36204U 99025DUD 26060.07447183  .00003203  00000+0  11359-2 0  9996
2 36204  99.2858 168.0359 0017706 291.2286  68.7006 14.35179499955515
FENGYUN 1C DEB          
1 36206U 99025DUF 26060.86847833  .00001282  00000+0  59795-3 0  9993
2 36206  98.4725  85.9096 0031480 146.2424 214.0767 14.21831805655455
FENGYUN 1C DEB          
1 36207U 99025DUG 26064.44927173  .00004033  00000+0  23866-2 0  9994
2 36207  98.6034 309.4230 0142228  89.5790 272.1674 14.03257829611253
FENGYUN 1C DEB          
1 36211U 99025DUL 26064.94558851  .00003443  00000+0  99875-3 0  9995
2 36211  98.5124  60.8241 0266531 345.3695  13.9876 14.26351014955553
FENGYUN 1C DEB          
1 36216U 99025DUR 26061.27617209  .00000645  00000+0  32596-3 0  9994
2 36216  98.6046  84.1644 0045597 146.2078 214.2019 14.18987676655000
FENGYUN 1C DEB          
1 36218U 99025DUT 26062.04884706  .00006036  00000+0  92678-3 0  9997
2 36218  99.0747 277.2706 0072013  46.5612 314.1554 14.72266949603244
FENGYUN 1C DEB          
1 36224U 99025DUZ 26055.90933885  .00000150  00000+0  97021-4 0  9993
2 36224  98.7676 106.7658 0115610 140.3704 220.5989 14.12805744654790
FENGYUN 1C DEB          
1 36225U 99025DVA 26065.20504628  .00056118  00000+0  29274-2 0  9995
2 36225  98.8197 204.1913 0033850  11.3831 348.8155 15.15233670680324
FENGYUN 1C DEB          
1 36226U 99025DVB 26058.33932930  .00002495  00000+0  13566-2 0  9999
2 36226  98.6020 102.6073 0097813 162.0149 198.4524 14.10728672648421
FENGYUN 1C DEB          
1 36229U 99025DVE 26064.37676740  .00003688  00000+0  21084-2 0  9996
2 36229 100.9235 306.2703 0103580 267.8519  91.0779 14.07737688644187
FENGYUN 1C DEB          
1 36230U 99025DVF 26062.40088925  .00002084  00000+0  18741-2 0  9997
2 36230  99.5174 142.4447 0212242 290.2284  67.6159 13.75605543629951
FENGYUN 1C DEB          
1 36231U 99025DVG 26064.37279205  .00000289  00000+0  17728-3 0  9999
2 36231  98.7011  41.7964 0061975  97.2773 263.5449 14.12055266867092
FENGYUN 1C DEB          
1 36232U 99025DVH 26039.21824270  .00000544  00000+0  29717-3 0  9998
2 36232  98.7128  26.6675 0117723 223.7951 135.3839 14.12595450625477
